<Envelope xmlns="http://schemas.xmlsoap.org/soap/envelope/">
    <Body>
        <retrieveCurrentEphemerisResponse xmlns="http://mock.msso/">
            <ephemeris>
                <type>debris</type>
                <oem id="CCSDS_OEM_VERS" version="2.0">
                    <header>
                        <CREATION_DATE>2014-08-01T11:44:09Z</CREATION_DATE>
                        <ORIGINATOR>ESA</ORIGINATOR>
                    </header>
                    <body>
                        <segment>
                            <metadata>
                                <OBJECT_NAME>64001A</OBJECT_NAME>
                                <OBJECT_ID>221</OBJECT_ID>
                                <CENTER_NAME>EARTH</CENTER_NAME>
                                <REF_FRAME>GCRF</REF_FRAME>
                                <TIME_SYSTEM>UTC</TIME_SYSTEM>
                                <START_TIME>2014-01-28T00:00:00.000</START_TIME>
                                <STOP_TIME>2014-02-21T00:00:00.000</STOP_TIME>
                            </metadata>
                            <data>
                                <stateVector>
                                    <EPOCH>2014-01-28T02:30:00.000</EPOCH>
                                    <X>4522.29284019688</X>
                                    <Y>-4875.39670566474</Y>
                                    <Z>3013.86653560133</Z>
                                    <X_DOT>0.120896628076167</X_DOT>
                                    <Y_DOT>3.96813120318920</Y_DOT>
                                    <Z_DOT>6.22659326101121</Z_DOT>
                                </stateVector>
                                <stateVector>
                                    <EPOCH>2014-01-28T02:35:00.000</EPOCH>
                                    <X>4351.12518674789</X>
                                    <Y>-3480.13317843721</Y>
                                    <Z>4715.39286662020</Z>
                                    <X_DOT>-1.25339624543809</X_DOT>
                                    <Y_DOT>5.26219201428764</Y_DOT>
                                    <Z_DOT>5.02947057770875</Z_DOT>
                                </stateVector>
                                <stateVector>
                                    <EPOCH>2014-01-28T02:40:00.000</EPOCH>
                                    <X>3781.65214025684</X>
                                    <Y>-1766.31217705538</Y>
                                    <Z>5985.24351716351</Z>
                                    <X_DOT>-2.51405235306681</X_DOT>
                                    <Y_DOT>6.07540587665187</Y_DOT>
                                    <Z_DOT>3.37072152611975</Z_DOT>
                                </stateVector>
                                <stateVector>
                                    <EPOCH>2014-01-28T02:45:00.000</EPOCH>
                                    <X>2865.67887001427</X>
                                    <Y>109.326131187977</Y>
                                    <Z>6706.65017989623</Z>
                                    <X_DOT>-3.54554606174865</X_DOT>
                                    <Y_DOT>6.33247839016336</Y_DOT>
                                    <Z_DOT>1.40119492474270</Z_DOT>
                                </stateVector>
                                <stateVector>
                                    <EPOCH>2014-01-28T02:50:00.000</EPOCH>
                                    <X>1686.84641677724</X>
                                    <Y>1974.90107676030</Y>
                                    <Z>6812.82530138570</Z>
                                    <X_DOT>-4.25280804561720</X_DOT>
                                    <Y_DOT>6.00860579958006</Y_DOT>
                                    <Z_DOT>-0.699249452660754</Z_DOT>
                                </stateVector>
                                <stateVector>
                                    <EPOCH>2014-01-28T02:55:00.000</EPOCH>
                                    <X>353.112477550229</X>
                                    <Y>3659.06231903519</Y>
                                    <Z>6293.29459302469</Z>
                                    <X_DOT>-4.57008691683430</X_DOT>
                                    <Y_DOT>5.13218205106048</Y_DOT>
                                    <Z_DOT>-2.73791362064038</Z_DOT>
                                </stateVector>
                                <stateVector>
                                    <EPOCH>2014-01-28T03:00:00.000</EPOCH>
                                    <X>-1013.06652089328</X>
                                    <Y>5006.75284527589</Y>
                                    <Z>5195.11950863516</Z>
                                    <X_DOT>-4.46728040983212</X_DOT>
                                    <Y_DOT>3.78267218602821</Y_DOT>
                                    <Z_DOT>-4.52690531097307</Z_DOT>
                                </stateVector>
                                <stateVector>
                                    <EPOCH>2014-01-28T03:05:00.000</EPOCH>
                                    <X>-2285.98438907862</X>
                                    <Y>5893.60590431953</Y>
                                    <Z>3618.80393791363</Z>
                                    <X_DOT>-3.95304995207522</X_DOT>
                                    <Y_DOT>2.08367485315485</Y_DOT>
                                    <Z_DOT>-5.90065231966041</Z_DOT>
                                </stateVector>
                                <stateVector>
                                    <EPOCH>2014-01-28T03:10:00.000</EPOCH>
                                    <X>-3348.33030450007</X>
                                    <Y>6237.59615655442</Y>
                                    <Z>1709.17886016824</Z>
                                    <X_DOT>-3.07430612111113</X_DOT>
                                    <Y_DOT>0.191680519947226</Y_DOT>
                                    <Z_DOT>-6.73158581734956</Z_DOT>
                                </stateVector>
                                <stateVector>
                                    <EPOCH>2014-01-28T03:15:00.000</EPOCH>
                                    <X>-4102.12338919716</X>
                                    <Y>6006.79101014455</Y>
                                    <Z>-357.938844872037</Z>
                                    <X_DOT>-1.91200986668250</X_DOT>
                                    <Y_DOT>-1.71848235756663</Y_DOT>
                                    <Z_DOT>-6.94237879326716</Z_DOT>
                                </stateVector>
                                <stateVector>
                                    <EPOCH>2014-01-28T03:20:00.000</EPOCH>
                                    <X>-4477.87316065529</X>
                                    <Y>5222.41028059539</Y>
                                    <Z>-2392.07262438140</Z>
                                    <X_DOT>-0.573634863471618</X_DOT>
                                    <Y_DOT>-3.47011029245339</Y_DOT>
                                    <Z_DOT>-6.51342434864688</Z_DOT>
                                </stateVector>
                                <stateVector>
                                    <EPOCH>2014-01-28T03:25:00.000</EPOCH>
                                    <X>-4441.06476562065</X>
                                    <Y>3956.86659525292</Y>
                                    <Z>-4205.83144840317</Z>
                                    <X_DOT>0.816979292151258</X_DOT>
                                    <Y_DOT>-4.90133550630116</Y_DOT>
                                    <Z_DOT>-5.48472852960866</Z_DOT>
                                </stateVector>
                                <stateVector>
                                    <EPOCH>2014-01-28T03:30:00.000</EPOCH>
                                    <X>-3995.33516546515</X>
                                    <Y>2326.97059888758</Y>
                                    <Z>-5632.35084880676</Z>
                                    <X_DOT>2.13134940783828</X_DOT>
                                    <Y_DOT>-5.88037218065376</Y_DOT>
                                    <Z_DOT>-3.95200991186013</Z_DOT>
                                </stateVector>
                                <stateVector>
                                    <EPOCH>2014-01-28T03:35:00.000</EPOCH>
                                    <X>-3182.04601025236</X>
                                    <Y>482.978274801810</Y>
                                    <Z>-6540.74226793382</Z>
                                    <X_DOT>3.24844159748070</X_DOT>
                                    <Y_DOT>-6.31775813585554</Y_DOT>
                                    <Z_DOT>-2.05744748467281</Z_DOT>
                                </stateVector>
                                <stateVector>
                                    <EPOCH>2014-01-28T03:40:00.000</EPOCH>
                                    <X>-2076.32640009468</X>
                                    <Y>-1405.43094300164</Y>
                                    <Z>-6848.08527126629</Z>
                                    <X_DOT>4.06591674407137</X_DOT>
                                    <Y_DOT>-6.17441706035326</Y_DOT>
                                    <Z_DOT>2.390411632995183E-002</Z_DOT>
                                </stateVector>
                                